{"type": "FeatureCollection", "features": [ {"type": "Feature", "properties": {"norad_id": 34790, "name": "COSMOS 2251 DEB", "group": "cosmos-2251-debris", "lat": 8.432635395351909, "lon": 44.16937594577973, "alt_km": 841.1455929976546, "timestamp": "2025-12-22T05:49:03.896388+00:00", "meta": {"OBJECT_NAME": "COSMOS 2251 DEB", "OBJECT_ID": "1993-036AAT", "EPOCH": "2025-12-20T03:10:44.601024", "MEAN_MOTION": 14.24656104, "ECCENTRICITY": 0.01005224, "INCLINATION": 74.0538, "RA_OF_ASC_NODE": 230.3962, "ARG_OF_PERICENTER": 290.5432, "MEAN_ANOMALY": 224.5062, "EPHEMERIS_TYPE": 0, "CLASSIFICATION_TYPE": "U", "NORAD_CAT_ID": 34790, "ELEMENT_SET_NO": 999, "REV_AT_EPOCH": 86678, "BSTAR": 0.00041671452, "MEAN_MOTION_DOT": 9.95e-06, "MEAN_MOTION_DDOT": 0}, "tle": {"line1": "1 34790U 93036AAT 25354.13246066  .00000995  00000+0  41671-3 0  9995", "line2": "2 34790  74.0538 230.3962 0100522 290.5432 224.5062 14.24656104866781"}}, "geometry": {"type": "Point", "coordinates": [44.16937594577973, 8.432635395351909]}}, {"type": "Feature", "properties": {"norad_id": 34792, "name": "COSMOS 2251 DEB", "group": "cosmos-2251-debris", "lat": 63.32660665952388, "lon": -63.11304592348296, "alt_km": 705.648872193141, "timestamp": "2025-12-22T05:49:03.896398+00:00", "meta": {"OBJECT_NAME": "COSMOS 2251 DEB", "OBJECT_ID": "1993-036AAV", "EPOCH": "2025-12-21T19:58:57.186048", "MEAN_MOTION": 14.56023157, "ECCENTRICITY": 0.0012384, "INCLINATION": 74.0174, "RA_OF_ASC_NODE": 152.4504, "ARG_OF_PERICENTER": 246.9605, "MEAN_ANOMALY": 237.5715, "EPHEMERIS_TYPE": 0, "CLASSIFICATION_TYPE": "U", "NORAD_CAT_ID": 34792, "ELEMENT_SET_NO": 999, "REV_AT_EPOCH": 87782, "BSTAR": 0.00082205, "MEAN_MOTION_DOT": 3.595e-05, "MEAN_MOTION_DDOT": 0}, "tle": {"line1": "1 34792U 93036AAV 25355.83260632  .00003595  00000+0  82205-3 0  9997", "line2": "2 34792  74.0174 152.4504 0012384 246.9605 237.5715 14.56023157877827"}}, "geometry": {"type": "Point", "coordinates": [-63.11304592348296, 63.32660665952388]}}, {"type": "Feature", "properties": {"norad_id": 34793, "name": "COSMOS 2251 DEB", "group": "cosmos-2251-debris", "lat": 16.805796095265347, "lon": -122.21745435156126, "alt_km": 727.1883490753853, "timestamp": "2025-12-22T05:49:03.896409+00:00", "meta": {"OBJECT_NAME": "COSMOS 2251 DEB", "OBJECT_ID": "1993-036AAW", "EPOCH": "2025-12-21T18:21:24.551136", "MEAN_MOTION": 14.38657782, "ECCENTRICITY": 0.0050681, "INCLINATION": 74.002, "RA_OF_ASC_NODE": 233.6936, "ARG_OF_PERICENTER": 25.499, "MEAN_ANOMALY": 39.9235, "EPHEMERIS_TYPE": 0, "CLASSIFICATION_TYPE": "U", "NORAD_CAT_ID": 34793, "ELEMENT_SET_NO": 999, "REV_AT_EPOCH": 87460, "BSTAR": 0.00018245, "MEAN_MOTION_DOT": 5.41e-06, "MEAN_MOTION_DDOT": 0}, "tle": {"line1": "1 34793U 93036AAW 25355.76486749  .00000541  00000+0  18245-3 0  9990", "line2": "2 34793  74.0020 233.6936 0050681  25.4990  39.9235 14.38657782874609"}}, "geometry": {"type": "Point", "coordinates": [-122.21745435156126, 16.805796095265347]}}, {"type": "Feature", "properties": {"norad_id": 34796, "name": "COSMOS 2251 DEB", "group": "cosmos-2251-debris", "lat": 72.9718423344282, "lon": -50.71459709120067, "alt_km": 788.1605353068462, "timestamp": "2025-12-22T05:49:03.896418+00:00", "meta": {"OBJECT_NAME": "COSMOS 2251 DEB", "OBJECT_ID": "1993-036AAZ", "EPOCH": "2025-12-21T06:43:38.254368", "MEAN_MOTION": 14.48726221, "ECCENTRICITY": 0.010028, "INCLINATION": 74.0288, "RA_OF_ASC_NODE": 200.3317, "ARG_OF_PERICENTER": 300.5709, "MEAN_ANOMALY": 179.2041, "EPHEMERIS_TYPE": 0, "CLASSIFICATION_TYPE": "U", "NORAD_CAT_ID": 34796, "ELEMENT_SET_NO": 999, "REV_AT_EPOCH": 88151, "BSTAR": 0.00042485, "MEAN_MOTION_DOT": 1.677e-05, "MEAN_MOTION_DDOT": 0}, "tle": {"line1": "1 34796U 93036AAZ 25355.28030387  .00001677  00000+0  42485-3 0  9997", "line2": "2 34796  74.0288 200.3317 0100280 300.5709 179.2041 14.48726221881515"}}, "geometry": {"type": "Point", "coordinates": [-50.71459709120067, 72.9718423344282]}}, {"type": "Feature", "properties": {"norad_id": 34797, "name": "COSMOS 2251 DEB", "group": "cosmos-2251-debris", "lat": 18.785815191240008, "lon": 87.89050625862562, "alt_km": 799.2698657427927, "timestamp": "2025-12-22T05:49:03.896428+00:00", "meta": {"OBJECT_NAME": "COSMOS 2251 DEB", "OBJECT_ID": "1993-036ABA", "EPOCH": "2025-12-18T13:32:08.695392", "MEAN_MOTION": 14.42903821, "ECCENTRICITY": 0.00713736, "INCLINATION": 73.9783, "RA_OF_ASC_NODE": 89.1324, "ARG_OF_PERICENTER": 201.7042, "MEAN_ANOMALY": 158.1087, "EPHEMERIS_TYPE": 0, "CLASSIFICATION_TYPE": "U", "NORAD_CAT_ID": 34797, "ELEMENT_SET_NO": 999, "REV_AT_EPOCH": 87499, "BSTAR": 0.0016985088, "MEAN_MOTION_DOT": 5.83e-05, "MEAN_MOTION_DDOT": 0}, "tle": {"line1": "1 34797U 93036ABA 25352.56398953  .00005830  00000+0  16985-2 0  9992", "line2": "2 34797  73.9783  89.1324 0071373 201.7042 158.1087 14.42903821874994"}}, "geometry": {"type": "Point", "coordinates": [87.89050625862562, 18.785815191240008]}}, {"type": "Feature", "properties": {"norad_id": 34814, "name": "COSMOS 2251 DEB", "group": "cosmos-2251-debris", "lat": 20.44794484408834, "lon": 121.6302929043582, "alt_km": 736.3827252522697, "timestamp": "2025-12-22T05:49:03.896438+00:00", "meta": {"OBJECT_NAME": "COSMOS 2251 DEB", "OBJECT_ID": "1993-036ABD", "EPOCH": "2025-12-21T20:52:02.644320", "MEAN_MOTION": 14.36929091, "ECCENTRICITY": 0.0055599, "INCLINATION": 73.896, "RA_OF_ASC_NODE": 308.5052, "ARG_OF_PERICENTER": 196.164, "MEAN_ANOMALY": 194.4042, "EPHEMERIS_TYPE": 0, "CLASSIFICATION_TYPE": "U", "NORAD_CAT_ID": 34814, "ELEMENT_SET_NO": 999, "REV_AT_EPOCH": 87464, "BSTAR": 0.00055763, "MEAN_MOTION_DOT": 1.653e-05, "MEAN_MOTION_DDOT": 0}, "tle": {"line1": "1 34814U 93036ABD 25355.86947505  .00001653  00000+0  55763-3 0  9998", "line2": "2 34814  73.8960 308.5052 0055599 196.1640 194.4042 14.36929091874645"}}, "geometry": {"type": "Point", "coordinates": [121.6302929043582, 20.44794484408834]}}, {"type": "Feature", "properties": {"norad_id": 34815, "name": "COSMOS 2251 DEB", "group": "cosmos-2251-debris", "lat": -63.94941642487613, "lon": -172.68248722960502, "alt_km": 599.95736168841, "timestamp": "2025-12-22T05:49:03.896449+00:00", "meta": {"OBJECT_NAME": "COSMOS 2251 DEB", "OBJECT_ID": "1993-036ABE", "EPOCH": "2025-12-21T18:45:31.868640", "MEAN_MOTION": 14.78405815, "ECCENTRICITY": 0.0058816, "INCLINATION": 74.044, "RA_OF_ASC_NODE": 224.0458, "ARG_OF_PERICENTER": 291.2324, "MEAN_ANOMALY": 68.2575, "EPHEMERIS_TYPE": 0, "CLASSIFICATION_TYPE": "U", "NORAD_CAT_ID": 34815, "ELEMENT_SET_NO": 999, "REV_AT_EPOCH": 88761, "BSTAR": 0.00055532, "MEAN_MOTION_DOT": 4.13e-05, "MEAN_MOTION_DDOT": 0}, "tle": {"line1": "1 34815U 93036ABE 25355.78161885  .00004130  00000+0  55532-3 0  9996", "line2": "2 34815  74.0440 224.0458 0058816 291.2324  68.2575 14.78405815887614"}}, "geometry": {"type": "Point", "coordinates": [-172.68248722960502, -63.94941642487613]}}, {"type": "Feature", "properties": {"norad_id": 34816, "name": "COSMOS 2251 DEB", "group": "cosmos-2251-debris", "lat": 72.87359741970381, "lon": -122.11067997676572, "alt_km": 1046.2634535628868, "timestamp": "2025-12-22T05:49:03.896459+00:00", "meta": {"OBJECT_NAME": "COSMOS 2251 DEB", "OBJECT_ID": "1993-036ABF", "EPOCH": "2025-12-21T19:28:23.587104", "MEAN_MOTION": 13.58347113, "ECCENTRICITY": 0.0373116, "INCLINATION": 73.8869, "RA_OF_ASC_NODE": 128.3199, "ARG_OF_PERICENTER": 191.2258, "MEAN_ANOMALY": 321.9512, "EPHEMERIS_TYPE": 0, "CLASSIFICATION_TYPE": "U", "NORAD_CAT_ID": 34816, "ELEMENT_SET_NO": 999, "REV_AT_EPOCH": 82906, "BSTAR": 0.001115, "MEAN_MOTION_DOT": 1.255e-05, "MEAN_MOTION_DDOT": 0}, "tle": {"line1": "1 34816U 93036ABF 25355.81138411  .00001255  00000+0  11150-2 0  9992", "line2": "2 34816  73.8869 128.3199 0373116 191.2258 321.9512 13.58347113829061"}}, "geometry": {"type": "Point", "coordinates": [-122.11067997676572, 72.87359741970381]}}, {"type": "Feature", "properties": {"norad_id": 34818, "name": "COSMOS 2251 DEB", "group": "cosmos-2251-debris", "lat": -49.41265141852274, "lon": 118.98619005434144, "alt_km": 784.0318888665734, "timestamp": "2025-12-22T05:49:03.896469+00:00", "meta": {"OBJECT_NAME": "COSMOS 2251 DEB", "OBJECT_ID": "1993-036ABH", "EPOCH": "2025-12-21T06:03:22.029120", "MEAN_MOTION": 14.36976578, "ECCENTRICITY": 0.0024585, "INCLINATION": 74.0362, "RA_OF_ASC_NODE": 281.2869, "ARG_OF_PERICENTER": 355.1217, "MEAN_ANOMALY": 157.5455, "EPHEMERIS_TYPE": 0, "CLASSIFICATION_TYPE": "U", "NORAD_CAT_ID": 34818, "ELEMENT_SET_NO": 999, "REV_AT_EPOCH": 87492, "BSTAR": 0.00016074, "MEAN_MOTION_DOT": 4.52e-06, "MEAN_MOTION_DDOT": 0}, "tle": {"line1": "1 34818U 93036ABH 25355.25233830  .00000452  00000+0  16074-3 0  9992", "line2": "2 34818  74.0362 281.2869 0024585 355.1217 157.5455 14.36976578874920"}}, "geometry": {"type": "Point", "coordinates": [118.98619005434144, -49.41265141852274]}}, {"type": "Feature", "properties": {"norad_id": 34819, "name": "COSMOS 2251 DEB", "group": "cosmos-2251-debris", "lat": -4.620266779853674, "lon": 123.06337307923482, "alt_km": 691.1518253395952, "timestamp": "2025-12-22T05:49:03.896479+00:00", "meta": {"OBJECT_NAME": "COSMOS 2251 DEB", "OBJECT_ID": "1993-036ABJ", "EPOCH": "2025-12-20T09:50:49.162272", "MEAN_MOTION": 14.64072467, "ECCENTRICITY": 0.00155371, "INCLINATION": 74.018, "RA_OF_ASC_NODE": 127.9117, "ARG_OF_PERICENTER": 222.8872, "MEAN_ANOMALY": 199.7592, "EPHEMERIS_TYPE": 0, "CLASSIFICATION_TYPE": "U", "NORAD_CAT_ID": 34819, "ELEMENT_SET_NO": 999, "REV_AT_EPOCH": 88341, "BSTAR": 0.001010903, "MEAN_MOTION_DOT": 5.289e-05, "MEAN_MOTION_DDOT": 0}, "tle": {"line1": "1 34819U 93036ABJ 25354.41029123  .00005289  00000+0  10109-2 0  9993", "line2": "2 34819  74.0180 127.9117 0015537 222.8872 199.7592 14.64072467883414"}}, "geometry": {"type": "Point", "coordinates": [123.06337307923482, -4.620266779853674]}}]}